{
    "week": 294,
    "satellites": [
        {
            "Name": "GSAT0218 (GALILEO 22)",
            "Line1": "1 43058U 17079D   24328.41654527 -.00000026  00000+0  00000+0 0  9994",
            "Line2": "2 43058  55.2719 237.2121 0003486 294.3413  65.6641  1.70473905 43287",
            "SatelliteNumber": "43058",
            "Classification": "U",
            "LaunchYear": "17",
            "LaunchNumber": "079",
            "PieceOfLaunch": "D",
            "EpochYear": "24",
            "EpochDay": 328.41654527,
            "FirstDerivativeMeanMotion": -2.6e-07,
            "SecondDerivativeMeanMotion": "00000+0",
            "BSTAR": "00000+0",
            "SetNumber": "999",
            "Inclination": 55.2719,
            "RAAN": 237.2121,
            "Eccentricity": 0.0003486,
            "ArgumentOfPerigee": 294.3413,
            "MeanAnomaly": 65.6641,
            "MeanMotion": 1.70473905,
            "RevolutionNumber": "4328"
        },
        {
            "Name": "GSAT0221 (GALILEO 25)",
            "Line1": "1 43564U 18060A   24329.49080239 -.00000086  00000+0  00000+0 0  9995",
            "Line2": "2 43564  57.2956 357.1510 0006137 273.7100  86.2714  1.70476077 39455",
            "SatelliteNumber": "43564",
            "Classification": "U",
            "LaunchYear": "18",
            "LaunchNumber": "060",
            "PieceOfLaunch": "A",
            "EpochYear": "24",
            "EpochDay": 329.49080239,
            "FirstDerivativeMeanMotion": -8.6e-07,
            "SecondDerivativeMeanMotion": "00000+0",
            "BSTAR": "00000+0",
            "SetNumber": "999",
            "Inclination": 57.2956,
            "RAAN": 357.151,
            "Eccentricity": 0.0006137,
            "ArgumentOfPerigee": 273.71,
            "MeanAnomaly": 86.2714,
            "MeanMotion": 1.70476077,
            "RevolutionNumber": "3945"
        },
        {
            "Name": "GSAT0222 (GALILEO 26)",
            "Line1": "1 43565U 18060B   24327.94978855 -.00000091  00000+0  00000+0 0  9990",
            "Line2": "2 43565  57.2994 357.1948 0005723 251.8543 108.1328  1.70475794 39473",
            "SatelliteNumber": "43565",
            "Classification": "U",
            "LaunchYear": "18",
            "LaunchNumber": "060",
            "PieceOfLaunch": "B",
            "EpochYear": "24",
            "EpochDay": 327.94978855,
            "FirstDerivativeMeanMotion": -9.1e-07,
            "SecondDerivativeMeanMotion": "00000+0",
            "BSTAR": "00000+0",
            "SetNumber": "999",
            "Inclination": 57.2994,
            "RAAN": 357.1948,
            "Eccentricity": 0.0005723,
            "ArgumentOfPerigee": 251.8543,
            "MeanAnomaly": 108.1328,
            "MeanMotion": 1.70475794,
            "RevolutionNumber": "3947"
        },
        {
            "Name": "GSAT0219 (GALILEO 23)",
            "Line1": "1 43566U 18060C   24329.34461096 -.00000087  00000+0  00000+0 0  9996",
            "Line2": "2 43566  57.2984 357.1590 0005259 277.7801  82.2116  1.70476075 39474",
            "SatelliteNumber": "43566",
            "Classification": "U",
            "LaunchYear": "18",
            "LaunchNumber": "060",
            "PieceOfLaunch": "C",
            "EpochYear": "24",
            "EpochDay": 329.34461096,
            "FirstDerivativeMeanMotion": -8.7e-07,
            "SecondDerivativeMeanMotion": "00000+0",
            "BSTAR": "00000+0",
            "SetNumber": "999",
            "Inclination": 57.2984,
            "RAAN": 357.159,
            "Eccentricity": 0.0005259,
            "ArgumentOfPerigee": 277.7801,
            "MeanAnomaly": 82.2116,
            "MeanMotion": 1.70476075,
            "RevolutionNumber": "3947"
        },
        {
            "Name": "GSAT0220 (GALILEO 24)",
            "Line1": "1 43567U 18060D   24328.39218129 -.00000090  00000+0  00000+0 0  9992",
            "Line2": "2 43567  57.2981 357.1845 0005577 274.5076  85.4786  1.70476095 39444",
            "SatelliteNumber": "43567",
            "Classification": "U",
            "LaunchYear": "18",
            "LaunchNumber": "060",
            "PieceOfLaunch": "D",
            "EpochYear": "24",
            "EpochDay": 328.39218129,
            "FirstDerivativeMeanMotion": -9e-07,
            "SecondDerivativeMeanMotion": "00000+0",
            "BSTAR": "00000+0",
            "SetNumber": "999",
            "Inclination": 57.2981,
            "RAAN": 357.1845,
            "Eccentricity": 0.0005577,
            "ArgumentOfPerigee": 274.5076,
            "MeanAnomaly": 85.4786,
            "MeanMotion": 1.70476095,
            "RevolutionNumber": "3944"
        },
        {
            "Name": "GSAT0223 (GALILEO 27)",
            "Line1": "1 49809U 21116A   24329.49908911 -.00000086  00000+0  00000+0 0  9995",
            "Line2": "2 49809  57.2881 357.0479 0004314 237.5922 172.2670  1.70476309 18472",
            "SatelliteNumber": "49809",
            "Classification": "U",
            "LaunchYear": "21",
            "LaunchNumber": "116",
            "PieceOfLaunch": "A",
            "EpochYear": "24",
            "EpochDay": 329.49908911,
            "FirstDerivativeMeanMotion": -8.6e-07,
            "SecondDerivativeMeanMotion": "00000+0",
            "BSTAR": "00000+0",
            "SetNumber": "999",
            "Inclination": 57.2881,
            "RAAN": 357.0479,
            "Eccentricity": 0.0004314,
            "ArgumentOfPerigee": 237.5922,
            "MeanAnomaly": 172.267,
            "MeanMotion": 1.70476309,
            "RevolutionNumber": "1847"
        },
        {
            "Name": "GSAT0224 (GALILEO 28)",
            "Line1": "1 49810U 21116B   24328.06645579 -.00000091  00000+0  00000+0 0  9993",
            "Line2": "2 49810  57.2885 357.0850 0004981 250.0895 113.0394  1.70476234 18473",
            "SatelliteNumber": "49810",
            "Classification": "U",
            "LaunchYear": "21",
            "LaunchNumber": "116",
            "PieceOfLaunch": "B",
            "EpochYear": "24",
            "EpochDay": 328.06645579,
            "FirstDerivativeMeanMotion": -9.1e-07,
            "SecondDerivativeMeanMotion": "00000+0",
            "BSTAR": "00000+0",
            "SetNumber": "999",
            "Inclination": 57.2885,
            "RAAN": 357.085,
            "Eccentricity": 0.0004981,
            "ArgumentOfPerigee": 250.0895,
            "MeanAnomaly": 113.0394,
            "MeanMotion": 1.70476234,
            "RevolutionNumber": "1847"
        },
        {
            "Name": "GSAT0225 (GALILEO 29)",
            "Line1": "1 59598U 24079A   24327.78868890  .00000049  00000+0  00000+0 0  9991",
            "Line2": "2 59598  54.7745 117.0687 0002276 159.7484  23.9372  1.70474912  3560",
            "SatelliteNumber": "59598",
            "Classification": "U",
            "LaunchYear": "24",
            "LaunchNumber": "079",
            "PieceOfLaunch": "A",
            "EpochYear": "24",
            "EpochDay": 327.7886889,
            "FirstDerivativeMeanMotion": 4.9e-07,
            "SecondDerivativeMeanMotion": "00000+0",
            "BSTAR": "00000+0",
            "SetNumber": "999",
            "Inclination": 54.7745,
            "RAAN": 117.0687,
            "Eccentricity": 0.0002276,
            "ArgumentOfPerigee": 159.7484,
            "MeanAnomaly": 23.9372,
            "MeanMotion": 1.70474912,
            "RevolutionNumber": "356"
        },
        {
            "Name": "GSAT0227 (GALILEO 30)",
            "Line1": "1 59600U 24079C   24328.84586270  .00000052  00000+0  00000+0 0  9996",
            "Line2": "2 59600  54.7798 117.0402 0003650 118.5235 241.4980  1.70474775  3649",
            "SatelliteNumber": "59600",
            "Classification": "U",
            "LaunchYear": "24",
            "LaunchNumber": "079",
            "PieceOfLaunch": "C",
            "EpochYear": "24",
            "EpochDay": 328.8458627,
            "FirstDerivativeMeanMotion": 5.2e-07,
            "SecondDerivativeMeanMotion": "00000+0",
            "BSTAR": "00000+0",
            "SetNumber": "999",
            "Inclination": 54.7798,
            "RAAN": 117.0402,
            "Eccentricity": 0.000365,
            "ArgumentOfPerigee": 118.5235,
            "MeanAnomaly": 241.498,
            "MeanMotion": 1.70474775,
            "RevolutionNumber": "364"
        },
        {
            "Name": "GSAT0232 (GALILEO 32)",
            "Line1": "1 61182U 24167A   24321.21686440 -.00000004  00000+0  00000+0 0  9994",
            "Line2": "2 61182  55.3884 237.1378 0015743 276.0571  83.7985  1.73178105  1028",
            "SatelliteNumber": "61182",
            "Classification": "U",
            "LaunchYear": "24",
            "LaunchNumber": "167",
            "PieceOfLaunch": "A",
            "EpochYear": "24",
            "EpochDay": 321.2168644,
            "FirstDerivativeMeanMotion": -4e-08,
            "SecondDerivativeMeanMotion": "00000+0",
            "BSTAR": "00000+0",
            "SetNumber": "999",
            "Inclination": 55.3884,
            "RAAN": 237.1378,
            "Eccentricity": 0.0015743,
            "ArgumentOfPerigee": 276.0571,
            "MeanAnomaly": 83.7985,
            "MeanMotion": 1.73178105,
            "RevolutionNumber": "102"
        }
    ]
}